STARLINK-2022           
1 47643U 21012Z   24239.78452029  .00001920  00000+0  14779-3 0  9999
2 47643  53.0552  45.1281 0001397  91.7334 268.3814 15.06392103195876
